[{"OBJECT_NAME":"KOSEN-1","OBJECT_ID":"2021-102H","EPOCH":"2026-03-09T22:29:54.100608","MEAN_MOTION":15.25323573,"ECCENTRICITY":0.00138659,"INCLINATION":97.3334,"RA_OF_ASC_NODE":113.0569,"ARG_OF_PERICENTER":191.9191,"MEAN_ANOMALY":168.1721,"EPHEMERIS_TYPE":0,"CLASSIFICATION_TYPE":"U","NORAD_CAT_ID":49402,"ELEMENT_SET_NO":999,"REV_AT_EPOCH":23888,"BSTAR":0.00040411561,"MEAN_MOTION_DOT":0.00010142,"MEAN_MOTION_DDOT":0},{"OBJECT_NAME":"STARLINK-30512","OBJECT_ID":"2023-151N","EPOCH":"2026-03-09T22:00:01.999584","MEAN_MOTION":15.27542701,"ECCENTRICITY":0.00014616,"INCLINATION":43.0006,"RA_OF_ASC_NODE":334.5386,"ARG_OF_PERICENTER":259.1867,"MEAN_ANOMALY":60.3165,"EPHEMERIS_TYPE":0,"CLASSIFICATION_TYPE":"U","NORAD_CAT_ID":57976,"ELEMENT_SET_NO":999,"REV_AT_EPOCH":578,"BSTAR":-0.00032128413,"MEAN_MOTION_DOT":-9.082e-5,"MEAN_MOTION_DDOT":0}]
